STARLINK-1542_new
1 16073C 20055AY  21326.12308317 -.00006927  00000-0 -46426-3 0  3266
2 16073  53.0538 298.1989 0001720  57.5527  52.6522 15.06394345    16
STARLINK-1542_old
1 26073C 20055AY  21325.16302171  .00000879  00000-0  58895-4 0  3252
2 26073  53.0541 302.5087 0001765  58.8355 242.0092 15.06402249    11
